[{"OBJECT_NAME":"ONEWEB-0685","OBJECT_ID":"2022-166AP","EPOCH":"2025-08-30T02:46:25.946976","MEAN_MOTION":13.21824684,"ECCENTRICITY":0.00022331,"INCLINATION":87.9234,"RA_OF_ASC_NODE":302.0751,"ARG_OF_PERICENTER":95.9001,"MEAN_ANOMALY":264.2388,"EPHEMERIS_TYPE":0,"CLASSIFICATION_TYPE":"U","NORAD_CAT_ID":54679,"ELEMENT_SET_NO":999,"REV_AT_EPOCH":13296,"BSTAR":0.00015396005,"MEAN_MOTION_DOT":7.7e-7,"MEAN_MOTION_DDOT":0},{"OBJECT_NAME":"ONEWEB-0712","OBJECT_ID":"2022-166AQ","EPOCH":"2025-08-30T03:26:52.204992","MEAN_MOTION":13.1659577,"ECCENTRICITY":0.00020245,"INCLINATION":87.9012,"RA_OF_ASC_NODE":286.776,"ARG_OF_PERICENTER":77.682,"MEAN_ANOMALY":282.4537,"EPHEMERIS_TYPE":0,"CLASSIFICATION_TYPE":"U","NORAD_CAT_ID":54680,"ELEMENT_SET_NO":999,"REV_AT_EPOCH":13376,"BSTAR":0.00010181492,"MEAN_MOTION_DOT":5.2e-7,"MEAN_MOTION_DDOT":0},{"OBJECT_NAME":"ONEWEB-0714","OBJECT_ID":"2022-166AR","EPOCH":"2025-08-30T02:55:26.815296","MEAN_MOTION":13.21829236,"ECCENTRICITY":0.00021689,"INCLINATION":87.9237,"RA_OF_ASC_NODE":302.0672,"ARG_OF_PERICENTER":94.0981,"MEAN_ANOMALY":266.0401,"EPHEMERIS_TYPE":0,"CLASSIFICATION_TYPE":"U","NORAD_CAT_ID":54681,"ELEMENT_SET_NO":999,"REV_AT_EPOCH":13308,"BSTAR":0.00018701864,"MEAN_MOTION_DOT":9.0e-7,"MEAN_MOTION_DDOT":0},{"OBJECT_NAME":"ONEWEB-0532","OBJECT_ID":"2023-004A","EPOCH":"2025-08-30T04:44:52.552608","MEAN_MOTION":13.17648654,"ECCENTRICITY":0.00019355,"INCLINATION":87.9037,"RA_OF_ASC_NODE":63.7493,"ARG_OF_PERICENTER":101.1228,"MEAN_ANOMALY":259.0122,"EPHEMERIS_TYPE":0,"CLASSIFICATION_TYPE":"U","NORAD_CAT_ID":55140,"ELEMENT_SET_NO":999,"REV_AT_EPOCH":12926,"BSTAR":0.00071977799,"MEAN_MOTION_DOT":2.92e-6,"MEAN_MOTION_DDOT":0},{"OBJECT_NAME":"ONEWEB-0533","OBJECT_ID":"2023-004B","EPOCH":"2025-08-30T03:43:32.915712","MEAN_MOTION":13.12434273,"ECCENTRICITY":0.00018043,"INCLINATION":87.888,"RA_OF_ASC_NODE":48.4935,"ARG_OF_PERICENTER":87.3929,"MEAN_ANOMALY":272.7406,"EPHEMERIS_TYPE":0,"CLASSIFICATION_TYPE":"U","NORAD_CAT_ID":55141,"ELEMENT_SET_NO":999,"REV_AT_EPOCH":12988,"BSTAR":0.0060558814,"MEAN_MOTION_DOT":2.192e-5,"MEAN_MOTION_DDOT":0},{"OBJECT_NAME":"ONEWEB-0541","OBJECT_ID":"2023-004C","EPOCH":"2025-08-30T00:48:41.949504","MEAN_MOTION":13.11415987,"ECCENTRICITY":0.00015882,"INCLINATION":87.878,"RA_OF_ASC_NODE":79.0625,"ARG_OF_PERICENTER":90.7471,"MEAN_ANOMALY":269.3839,"EPHEMERIS_TYPE":0,"CLASSIFICATION_TYPE":"U","NORAD_CAT_ID":55142,"ELEMENT_SET_NO":999,"REV_AT_EPOCH":12778,"BSTAR":-0.0012695699,"MEAN_MOTION_DOT":-4.37e-6,"MEAN_MOTION_DDOT":0},{"OBJECT_NAME":"ONEWEB-0543","OBJECT_ID":"2023-004D","EPOCH":"2025-08-29T22:47:43.209024","MEAN_MOTION":13.18685867,"ECCENTRICITY":0.00017184,"INCLINATION":87.915,"RA_OF_ASC_NODE":33.348,"ARG_OF_PERICENTER":84.6982,"MEAN_ANOMALY":275.4346,"EPHEMERIS_TYPE":0,"CLASSIFICATION_TYPE":"U","NORAD_CAT_ID":55143,"ELEMENT_SET_NO":999,"REV_AT_EPOCH":13131,"BSTAR":-9.1301346e-5,"MEAN_MOTION_DOT":-2.3e-7,"MEAN_MOTION_DDOT":0},{"OBJECT_NAME":"ONEWEB-0544","OBJECT_ID":"2023-004E","EPOCH":"2025-08-30T04:05:59.839872","MEAN_MOTION":13.18686552,"ECCENTRICITY":0.00015299,"INCLINATION":87.9148,"RA_OF_ASC_NODE":33.2944,"ARG_OF_PERICENTER":89.8568,"MEAN_ANOMALY":270.2739,"EPHEMERIS_TYPE":0,"CLASSIFICATION_TYPE":"U","NORAD_CAT_ID":55144,"ELEMENT_SET_NO":999,"REV_AT_EPOCH":13134,"BSTAR":2.6176494e-5,"MEAN_MOTION_DOT":2.3e-7,"MEAN_MOTION_DDOT":0},{"OBJECT_NAME":"ONEWEB-0560","OBJECT_ID":"2023-004F","EPOCH":"2025-08-30T03:56:30.377472","MEAN_MOTION":13.18686393,"ECCENTRICITY":0.00014764,"INCLINATION":87.9156,"RA_OF_ASC_NODE":33.2731,"ARG_OF_PERICENTER":91.4852,"MEAN_ANOMALY":268.6449,"EPHEMERIS_TYPE":0,"CLASSIFICATION_TYPE":"U","NORAD_CAT_ID":55145,"ELEMENT_SET_NO":999,"REV_AT_EPOCH":13135,"BSTAR":5.8759779e-5,"MEAN_MOTION_DOT":3.6e-7,"MEAN_MOTION_DDOT":0},{"OBJECT_NAME":"ONEWEB-0565","OBJECT_ID":"2023-004G","EPOCH":"2025-08-30T03:46:59.225952","MEAN_MOTION":13.18683994,"ECCENTRICITY":0.0001491,"INCLINATION":87.9149,"RA_OF_ASC_NODE":33.3295,"ARG_OF_PERICENTER":111.8266,"MEAN_ANOMALY":248.3025,"EPHEMERIS_TYPE":0,"CLASSIFICATION_TYPE":"U","NORAD_CAT_ID":55146,"ELEMENT_SET_NO":999,"REV_AT_EPOCH":13134,"BSTAR":0.00018557064,"MEAN_MOTION_DOT":8.6e-7,"MEAN_MOTION_DDOT":0},{"OBJECT_NAME":"ONEWEB-0567","OBJECT_ID":"2023-004H","EPOCH":"2025-08-30T03:37:29.334144","MEAN_MOTION":13.18685014,"ECCENTRICITY":0.00013988,"INCLINATION":87.9157,"RA_OF_ASC_NODE":33.29,"ARG_OF_PERICENTER":102.7921,"MEAN_ANOMALY":257.3367,"EPHEMERIS_TYPE":0,"CLASSIFICATION_TYPE":"U","NORAD_CAT_ID":55147,"ELEMENT_SET_NO":999,"REV_AT_EPOCH":13134,"BSTAR":0.00011882782,"MEAN_MOTION_DOT":6.0e-7,"MEAN_MOTION_DDOT":0},{"OBJECT_NAME":"ONEWEB-0569","OBJECT_ID":"2023-004J","EPOCH":"2025-08-29T22:24:17.735904","MEAN_MOTION":13.134691,"ECCENTRICITY":7.39e-5,"INCLINATION":87.9016,"RA_OF_ASC_NODE":18.0593,"ARG_OF_PERICENTER":97.3534,"MEAN_ANOMALY":262.7679,"EPHEMERIS_TYPE":0,"CLASSIFICATION_TYPE":"U","NORAD_CAT_ID":55148,"ELEMENT_SET_NO":999,"REV_AT_EPOCH":13194,"BSTAR":-0.00059284291,"MEAN_MOTION_DOT":-2.04e-6,"MEAN_MOTION_DDOT":0},{"OBJECT_NAME":"ONEWEB-0570","OBJECT_ID":"2023-004K","EPOCH":"2025-08-30T03:23:15.239904","MEAN_MOTION":13.18686378,"ECCENTRICITY":0.00019698,"INCLINATION":87.9151,"RA_OF_ASC_NODE":33.2933,"ARG_OF_PERICENTER":112.2951,"MEAN_ANOMALY":247.839,"EPHEMERIS_TYPE":0,"CLASSIFICATION_TYPE":"U","NORAD_CAT_ID":55149,"ELEMENT_SET_NO":999,"REV_AT_EPOCH":13133,"BSTAR":0.00017178364,"MEAN_MOTION_DOT":8.1e-7,"MEAN_MOTION_DDOT":0},{"OBJECT_NAME":"ONEWEB-0571","OBJECT_ID":"2023-004L","EPOCH":"2025-08-29T23:35:13.945056","MEAN_MOTION":13.18686048,"ECCENTRICITY":9.864e-5,"INCLINATION":87.9148,"RA_OF_ASC_NODE":33.3301,"ARG_OF_PERICENTER":140.6561,"MEAN_ANOMALY":219.4643,"EPHEMERIS_TYPE":0,"CLASSIFICATION_TYPE":"U","NORAD_CAT_ID":55150,"ELEMENT_SET_NO":999,"REV_AT_EPOCH":13132,"BSTAR":-0.00022375804,"MEAN_MOTION_DOT":-7.5e-7,"MEAN_MOTION_DDOT":0},{"OBJECT_NAME":"ONEWEB-0572","OBJECT_ID":"2023-004M","EPOCH":"2025-08-30T05:28:35.796576","MEAN_MOTION":13.17650265,"ECCENTRICITY":0.00017003,"INCLINATION":87.9038,"RA_OF_ASC_NODE":63.7528,"ARG_OF_PERICENTER":96.3405,"MEAN_ANOMALY":263.792,"EPHEMERIS_TYPE":0,"CLASSIFICATION_TYPE":"U","NORAD_CAT_ID":55151,"ELEMENT_SET_NO":999,"REV_AT_EPOCH":12916,"BSTAR":-7.6232431e-5,"MEAN_MOTION_DOT":-1.7e-7,"MEAN_MOTION_DDOT":0},{"OBJECT_NAME":"ONEWEB-0573","OBJECT_ID":"2023-004N","EPOCH":"2025-08-30T03:04:13.622880","MEAN_MOTION":13.18687144,"ECCENTRICITY":0.00015256,"INCLINATION":87.9146,"RA_OF_ASC_NODE":33.3078,"ARG_OF_PERICENTER":126.9814,"MEAN_ANOMALY":233.1458,"EPHEMERIS_TYPE":0,"CLASSIFICATION_TYPE":"U","NORAD_CAT_ID":55152,"ELEMENT_SET_NO":999,"REV_AT_EPOCH":13133,"BSTAR":0.00022572729,"MEAN_MOTION_DOT":1.02e-6,"MEAN_MOTION_DDOT":0},{"OBJECT_NAME":"ONEWEB-0588","OBJECT_ID":"2023-004P","EPOCH":"2025-08-30T02:54:43.509024","MEAN_MOTION":13.18688292,"ECCENTRICITY":0.0001812,"INCLINATION":87.9153,"RA_OF_ASC_NODE":33.2949,"ARG_OF_PERICENTER":110.4525,"MEAN_ANOMALY":249.6802,"EPHEMERIS_TYPE":0,"CLASSIFICATION_TYPE":"U","NORAD_CAT_ID":55153,"ELEMENT_SET_NO":999,"REV_AT_EPOCH":13133,"BSTAR":-6.9500032e-5,"MEAN_MOTION_DOT":-1.4e-7,"MEAN_MOTION_DDOT":0}]
