ONEWEB-0685             
1 54679U 22166AP  25242.11557809  .00000077  00000+0  15396-3 0  9999
2 54679  87.9234 302.0751 0002233  95.9001 264.2388 13.21824684132961
ONEWEB-0712             
1 54680U 22166AQ  25242.14365978  .00000052  00000+0  10181-3 0  9998
2 54680  87.9012 286.7760 0002024  77.6820 282.4537 13.16595770133761
ONEWEB-0714             
1 54681U 22166AR  25242.12183814  .00000090  00000+0  18702-3 0  9993
2 54681  87.9237 302.0672 0002168  94.0981 266.0401 13.21829236133081
ONEWEB-0532             
1 55140U 23004A   25242.19783047  .00000292  00000+0  71978-3 0  9995
2 55140  87.9037  63.7493 0001935 101.1228 259.0122 13.17648654129262
ONEWEB-0533             
1 55141U 23004B   25242.15524208  .00002192  00000+0  60559-2 0  9997
2 55141  87.8880  48.4935 0001804  87.3929 272.7406 13.12434273129887
ONEWEB-0541             
1 55142U 23004C   25242.03381886 -.00000437  00000+0 -12696-2 0  9999
2 55142  87.8780  79.0625 0001588  90.7471 269.3839 13.11415987127781
ONEWEB-0543             
1 55143U 23004D   25241.94980566 -.00000023  00000+0 -91301-4 0  9992
2 55143  87.9150  33.3480 0001718  84.6982 275.4346 13.18685867131318
ONEWEB-0544             
1 55144U 23004E   25242.17083148  .00000023  00000+0  26176-4 0  9995
2 55144  87.9148  33.2944 0001529  89.8568 270.2739 13.18686552131341
ONEWEB-0560             
1 55145U 23004F   25242.16424048  .00000036  00000+0  58760-4 0  9991
2 55145  87.9156  33.2731 0001476  91.4852 268.6449 13.18686393131354
ONEWEB-0565             
1 55146U 23004G   25242.15762993  .00000086  00000+0  18557-3 0  9999
2 55146  87.9149  33.3295 0001491 111.8266 248.3025 13.18683994131344
ONEWEB-0567             
1 55147U 23004H   25242.15103396  .00000060  00000+0  11883-3 0  9993
2 55147  87.9157  33.2900 0001398 102.7921 257.3367 13.18685014131343
ONEWEB-0569             
1 55148U 23004J   25241.93353861 -.00000204  00000+0 -59284-3 0  9992
2 55148  87.9016  18.0593 0000739  97.3534 262.7679 13.13469100131947
ONEWEB-0570             
1 55149U 23004K   25242.14114861  .00000081  00000+0  17178-3 0  9999
2 55149  87.9151  33.2933 0001969 112.2951 247.8390 13.18686378131331
ONEWEB-0571             
1 55150U 23004L   25241.98280029 -.00000075  00000+0 -22376-3 0  9993
2 55150  87.9148  33.3301 0000986 140.6561 219.4643 13.18686048131328
ONEWEB-0572             
1 55151U 23004M   25242.22819209 -.00000017  00000+0 -76232-4 0  9997
2 55151  87.9038  63.7528 0001700  96.3405 263.7920 13.17650265129164
ONEWEB-0573             
1 55152U 23004N   25242.12793545  .00000102  00000+0  22573-3 0  9992
2 55152  87.9146  33.3078 0001525 126.9814 233.1458 13.18687144131333
ONEWEB-0588             
1 55153U 23004P   25242.12133691 -.00000014  00000+0 -69500-4 0  9999
2 55153  87.9153  33.2949 0001812 110.4525 249.6802 13.18688292131334
